{
  "norad_id": 67094,
  "name": "STARLINK-36202",
  "history": [
    {
      "epoch": "2026-05-03T17:12:07.200864Z",
      "apogee_km": 574.1887197260421,
      "perigee_km": 569.8837824143293,
      "latitude_deg": -3.654692354297126e-05,
      "longitude_deg": 115.91304535190804,
      "height_km": 574.5391875065236,
      "semi_major_axis_km": 6950.173251070185,
      "eccentricity": 0.0003097,
      "inclination_deg": 70.0032,
      "raan_deg": 235.5595,
      "arg_perigee_deg": 267.9995,
      "mean_anomaly_deg": 92.0809,
      "mean_motion_rev_day": 14.98336351
    },
    {
      "epoch": "2026-05-04T17:14:07.831680Z",
      "apogee_km": 574.3797054054257,
      "perigee_km": 569.6772234521941,
      "latitude_deg": -3.687585020362351e-05,
      "longitude_deg": 111.9001922897525,
      "height_km": 574.4746501871908,
      "semi_major_axis_km": 6950.16546442881,
      "eccentricity": 0.0003383,
      "inclination_deg": 70.0023,
      "raan_deg": 233.0363,
      "arg_perigee_deg": 269.5569,
      "mean_anomaly_deg": 90.5202,
      "mean_motion_rev_day": 14.98338869
    },
    {
      "epoch": "2026-05-05T17:16:08.376096Z",
      "apogee_km": 574.2998224136281,
      "perigee_km": 569.7321818606233,
      "latitude_deg": 4.174712715463103e-05,
      "longitude_deg": 107.88682842595732,
      "height_km": 574.4838754216329,
      "semi_major_axis_km": 6950.153002137125,
      "eccentricity": 0.0003286,
      "inclination_deg": 70.0023,
      "raan_deg": 230.5122,
      "arg_perigee_deg": 268.9974,
      "mean_anomaly_deg": 91.0809,
      "mean_motion_rev_day": 14.98342899
    },
    {
      "epoch": "2026-05-06T09:17:29.366880Z",
      "apogee_km": 574.4657555792,
      "perigee_km": 569.6728932978676,
      "latitude_deg": -8.877257352873393e-05,
      "longitude_deg": -134.7919035608789,
      "height_km": 574.4681567330642,
      "semi_major_axis_km": 6950.206324438534,
      "eccentricity": 0.0003448,
      "inclination_deg": 70.0019,
      "raan_deg": 228.829,
      "arg_perigee_deg": 270.6978,
      "mean_anomaly_deg": 89.3785,
      "mean_motion_rev_day": 14.98325656
    }
  ]
}